{"type": "FeatureCollection", "features": [{"type": "Feature", "properties": {"norad_id": 28054, "name": "DMSP 5D-3 F16 (USA 172)", "group": "weather", "lat": 37.643671509014304, "lon": -172.22408467337152, "alt_km": 846.197580490797, "timestamp": "2025-12-09T07:41:32.844545+00:00", "meta": {"OBJECT_NAME": "DMSP 5D-3 F16 (USA 172)", "OBJECT_ID": "2003-048A", "EPOCH": "2025-12-08T22:49:21.991008", "MEAN_MOTION": 14.14422062, "ECCENTRICITY": 0.00066415, "INCLINATION": 99.0048, "RA_OF_ASC_NODE": 0.3781, "ARG_OF_PERICENTER": 332.6225, "MEAN_ANOMALY": 88.3046, "EPHEMERIS_TYPE": 0, "CLASSIFICATION_TYPE": "U", "NORAD_CAT_ID": 28054, "ELEMENT_SET_NO": 999, "REV_AT_EPOCH": 14259, "BSTAR": 0.00013294748, "MEAN_MOTION_DOT": 2.09e-06, "MEAN_MOTION_DDOT": 0}, "tle": {"line1": "1 28054U 03048A   25342.95094897  .00000209  00000+0  13295-3 0  9994", "line2": "2 28054  99.0048   0.3781 0006641 332.6225  88.3046 14.14422062142596"}}, "geometry": {"type": "Point", "coordinates": [-172.22408467337152, 37.643671509014304]}}, {"type": "Feature", "properties": {"norad_id": 28912, "name": "METEOSAT-9 (MSG-2)", "group": "weather", "lat": -0.5308330870254627, "lon": -120.70843549821052, "alt_km": 35769.29531241002, "timestamp": "2025-12-09T07:41:32.844596+00:00", "meta": {"OBJECT_NAME": "METEOSAT-9 (MSG-2)", "OBJECT_ID": "2005-049B", "EPOCH": "2025-12-08T20:40:05.249568", "MEAN_MOTION": 1.00274262, "ECCENTRICITY": 0.00038396, "INCLINATION": 8.931, "RA_OF_ASC_NODE": 56.0124, "ARG_OF_PERICENTER": 190.0622, "MEAN_ANOMALY": 187.4345, "EPHEMERIS_TYPE": 0, "CLASSIFICATION_TYPE": "U", "NORAD_CAT_ID": 28912, "ELEMENT_SET_NO": 999, "REV_AT_EPOCH": 509, "BSTAR": 0, "MEAN_MOTION_DOT": 1.23e-06, "MEAN_MOTION_DDOT": 0}, "tle": {"line1": "1 28912U 05049B   25342.86117187  .00000123  00000+0  00000+0 0  9999", "line2": "2 28912   8.9310  56.0124 0003839 190.0622 187.4345  1.00274262  5096"}}, "geometry": {"type": "Point", "coordinates": [-120.70843549821052, -0.5308330870254627]}}, {"type": "Feature", "properties": {"norad_id": 29522, "name": "DMSP 5D-3 F17 (USA 191)", "group": "weather", "lat": 73.54790976984654, "lon": -42.61115243469078, "alt_km": 841.799216524727, "timestamp": "2025-12-09T07:41:32.844613+00:00", "meta": {"OBJECT_NAME": "DMSP 5D-3 F17 (USA 191)", "OBJECT_ID": "2006-050A", "EPOCH": "2025-12-08T22:50:53.315808", "MEAN_MOTION": 14.14916948, "ECCENTRICITY": 0.00092765, "INCLINATION": 98.7393, "RA_OF_ASC_NODE": 348.42, "ARG_OF_PERICENTER": 236.5892, "MEAN_ANOMALY": 123.4395, "EPHEMERIS_TYPE": 0, "CLASSIFICATION_TYPE": "U", "NORAD_CAT_ID": 29522, "ELEMENT_SET_NO": 999, "REV_AT_EPOCH": 98551, "BSTAR": 0.00015613481, "MEAN_MOTION_DOT": 2.58e-06, "MEAN_MOTION_DDOT": 0}, "tle": {"line1": "1 29522U 06050A   25342.95200597  .00000258  00000+0  15613-3 0  9997", "line2": "2 29522  98.7393 348.4200 0009276 236.5892 123.4395 14.14916948985513"}}, "geometry": {"type": "Point", "coordinates": [-42.61115243469078, 73.54790976984654]}}, {"type": "Feature", "properties": {"norad_id": 32958, "name": "FENGYUN 3A", "group": "weather", "lat": 80.57740072713263, "lon": 169.75082723033987, "alt_km": 823.4870313829415, "timestamp": "2025-12-09T07:41:32.844627+00:00", "meta": {"OBJECT_NAME": "FENGYUN 3A", "OBJECT_ID": "2008-026A", "EPOCH": "2025-12-08T19:24:39.976992", "MEAN_MOTION": 14.19512827, "ECCENTRICITY": 0.00080792, "INCLINATION": 98.6693, "RA_OF_ASC_NODE": 282.4185, "ARG_OF_PERICENTER": 322.7735, "MEAN_ANOMALY": 37.2881, "EPHEMERIS_TYPE": 0, "CLASSIFICATION_TYPE": "U", "NORAD_CAT_ID": 32958, "ELEMENT_SET_NO": 999, "REV_AT_EPOCH": 90839, "BSTAR": 0.00014393123, "MEAN_MOTION_DOT": 2.6e-06, "MEAN_MOTION_DDOT": 0}, "tle": {"line1": "1 32958U 08026A   25342.80879603  .00000260  00000+0  14393-3 0  9990", "line2": "2 32958  98.6693 282.4185 0008079 322.7735  37.2881 14.19512827908391"}}, "geometry": {"type": "Point", "coordinates": [169.75082723033987, 80.57740072713263]}}, {"type": "Feature", "properties": {"norad_id": 35491, "name": "GOES 14", "group": "weather", "lat": 0.01951827386690785, "lon": 85.37657152689546, "alt_km": 35801.25160961818, "timestamp": "2025-12-09T07:41:32.844642+00:00", "meta": {"OBJECT_NAME": "GOES 14", "OBJECT_ID": "2009-033A", "EPOCH": "2025-12-08T21:38:55.260672", "MEAN_MOTION": 1.00273129, "ECCENTRICITY": 0.00040642, "INCLINATION": 1.1894, "RA_OF_ASC_NODE": 85.4504, "ARG_OF_PERICENTER": 154.513, "MEAN_ANOMALY": 54.3645, "EPHEMERIS_TYPE": 0, "CLASSIFICATION_TYPE": "U", "NORAD_CAT_ID": 35491, "ELEMENT_SET_NO": 999, "REV_AT_EPOCH": 468, "BSTAR": 0, "MEAN_MOTION_DOT": -6.6e-07, "MEAN_MOTION_DDOT": 0}, "tle": {"line1": "1 35491U 09033A   25342.90202848 -.00000066  00000+0  00000+0 0  9997", "line2": "2 35491   1.1894  85.4504 0004064 154.5130  54.3645  1.00273129  4686"}}, "geometry": {"type": "Point", "coordinates": [85.37657152689546, 0.01951827386690785]}}, {"type": "Feature", "properties": {"norad_id": 35951, "name": "DMSP 5D-3 F18 (USA 210)", "group": "weather", "lat": -53.93587808393561, "lon": -27.860855121308603, "alt_km": 855.2521839108058, "timestamp": "2025-12-09T07:41:32.844654+00:00", "meta": {"OBJECT_NAME": "DMSP 5D-3 F18 (USA 210)", "OBJECT_ID": "2009-057A", "EPOCH": "2025-12-08T21:46:03.281088", "MEAN_MOTION": 14.14765421, "ECCENTRICITY": 0.00121052, "INCLINATION": 98.883, "RA_OF_ASC_NODE": 319.327, "ARG_OF_PERICENTER": 72.7402, "MEAN_ANOMALY": 287.5094, "EPHEMERIS_TYPE": 0, "CLASSIFICATION_TYPE": "U", "NORAD_CAT_ID": 35951, "ELEMENT_SET_NO": 999, "REV_AT_EPOCH": 83268, "BSTAR": 0.00022833798, "MEAN_MOTION_DOT": 3.96e-06, "MEAN_MOTION_DDOT": 0}, "tle": {"line1": "1 35951U 09057A   25342.90698242  .00000396  00000+0  22834-3 0  9999", "line2": "2 35951  98.8830 319.3270 0012105  72.7402 287.5094 14.14765421832684"}}, "geometry": {"type": "Point", "coordinates": [-27.860855121308603, -53.93587808393561]}}, {"type": "Feature", "properties": {"norad_id": 36411, "name": "EWS-G2 (GOES 15)", "group": "weather", "lat": 0.13130482640897911, "lon": -104.86944794982158, "alt_km": 35761.75115937188, "timestamp": "2025-12-09T07:41:32.844667+00:00", "meta": {"OBJECT_NAME": "EWS-G2 (GOES 15)", "OBJECT_ID": "2010-008A", "EPOCH": "2025-12-08T23:44:14.551584", "MEAN_MOTION": 1.00268844, "ECCENTRICITY": 0.00059465, "INCLINATION": 0.8047, "RA_OF_ASC_NODE": 86.0595, "ARG_OF_PERICENTER": 173.1346, "MEAN_ANOMALY": 236.2931, "EPHEMERIS_TYPE": 0, "CLASSIFICATION_TYPE": "U", "NORAD_CAT_ID": 36411, "ELEMENT_SET_NO": 999, "REV_AT_EPOCH": 5773, "BSTAR": 0, "MEAN_MOTION_DOT": 4e-07, "MEAN_MOTION_DDOT": 0}, "tle": {"line1": "1 36411U 10008A   25342.98905731  .00000040  00000+0  00000+0 0  9994", "line2": "2 36411   0.8047  86.0595 0005946 173.1346 236.2931  1.00268844 57739"}}, "geometry": {"type": "Point", "coordinates": [-104.86944794982158, 0.13130482640897911]}}, {"type": "Feature", "properties": {"norad_id": 36744, "name": "COMS 1", "group": "weather", "lat": -3.8992199373600824, "lon": -38.177647481449185, "alt_km": 35783.50981217726, "timestamp": "2025-12-09T07:41:32.844680+00:00", "meta": {"OBJECT_NAME": "COMS 1", "OBJECT_ID": "2010-032A", "EPOCH": "2025-12-08T17:38:17.054304", "MEAN_MOTION": 1.00270994, "ECCENTRICITY": 0.00011239, "INCLINATION": 4.3314, "RA_OF_ASC_NODE": 78.0431, "ARG_OF_PERICENTER": 199.5268, "MEAN_ANOMALY": 192.9144, "EPHEMERIS_TYPE": 0, "CLASSIFICATION_TYPE": "U", "NORAD_CAT_ID": 36744, "ELEMENT_SET_NO": 999, "REV_AT_EPOCH": 4918, "BSTAR": 0, "MEAN_MOTION_DOT": -3.43e-06, "MEAN_MOTION_DDOT": 0}, "tle": {"line1": "1 36744U 10032A   25342.73491961 -.00000343  00000+0  00000+0 0  9995", "line2": "2 36744   4.3314  78.0431 0001123 199.5268 192.9144  1.00270994 49185"}}, "geometry": {"type": "Point", "coordinates": [-38.177647481449185, -3.8992199373600824]}}, {"type": "Feature", "properties": {"norad_id": 37214, "name": "FENGYUN 3B", "group": "weather", "lat": -80.9759315317511, "lon": 117.80625495500192, "alt_km": 852.6368604230802, "timestamp": "2025-12-09T07:41:32.844692+00:00", "meta": {"OBJECT_NAME": "FENGYUN 3B", "OBJECT_ID": "2010-059A", "EPOCH": "2025-12-09T00:10:27.084288", "MEAN_MOTION": 14.1478665, "ECCENTRICITY": 0.00222671, "INCLINATION": 98.9907, "RA_OF_ASC_NODE": 22.9581, "ARG_OF_PERICENTER": 8.4441, "MEAN_ANOMALY": 106.4723, "EPHEMERIS_TYPE": 0, "CLASSIFICATION_TYPE": "U", "NORAD_CAT_ID": 37214, "ELEMENT_SET_NO": 999, "REV_AT_EPOCH": 78053, "BSTAR": -6.50314e-05, "MEAN_MOTION_DOT": -1.71e-06, "MEAN_MOTION_DDOT": 0}, "tle": {"line1": "1 37214U 10059A   25343.00725792 -.00000171  00000+0 -65031-4 0  9990", "line2": "2 37214  98.9907  22.9581 0022267   8.4441 106.4723 14.14786650780536"}}, "geometry": {"type": "Point", "coordinates": [117.80625495500192, -80.9759315317511]}}, {"type": "Feature", "properties": {"norad_id": 37849, "name": "SUOMI NPP", "group": "weather", "lat": 51.37600991623502, "lon": -90.45618331943608, "alt_km": 821.7723195357121, "timestamp": "2025-12-09T07:41:32.844703+00:00", "meta": {"OBJECT_NAME": "SUOMI NPP", "OBJECT_ID": "2011-061A", "EPOCH": "2025-12-08T22:59:19.905792", "MEAN_MOTION": 14.19512366, "ECCENTRICITY": 0.00021172, "INCLINATION": 98.7768, "RA_OF_ASC_NODE": 280.3336, "ARG_OF_PERICENTER": 126.8179, "MEAN_ANOMALY": 233.3191, "EPHEMERIS_TYPE": 0, "CLASSIFICATION_TYPE": "U", "NORAD_CAT_ID": 37849, "ELEMENT_SET_NO": 999, "REV_AT_EPOCH": 73145, "BSTAR": 9.892512e-05, "MEAN_MOTION_DOT": 1.64e-06, "MEAN_MOTION_DDOT": 0}, "tle": {"line1": "1 37849U 11061A   25342.95786928  .00000164  00000+0  98925-4 0  9997", "line2": "2 37849  98.7768 280.3336 0002117 126.8179 233.3191 14.19512366731458"}}, "geometry": {"type": "Point", "coordinates": [-90.45618331943608, 51.37600991623502]}}]}